{
  "type": "FeatureCollection",
  "features": [
    {
      "type": "Feature",
      "properties": {
        "norad_id": 29740,
        "name": "FENGYUN 1C DEB",
        "group": "fengyun-1c-debris",
        "lat": 74.23041560876287,
        "lon": 162.5122704945382,
        "alt_km": 2040.1311336218087,
        "timestamp": "2025-12-10T16:57:11.907626+00:00",
        "meta_object_name": "FENGYUN 1C DEB",
        "meta_object_id": "1999-025AE",
        "meta_epoch": "2025-12-10T00:33:08.583264",
        "meta_mean_motion": 12.0832584,
        "meta_eccentricity": 0.09750732,
        "meta_inclination": 99.0446,
        "meta_ra_of_asc_node": 196.3551,
        "meta_arg_of_pericenter": 204.1383,
        "meta_mean_anomaly": 151.0895,
        "meta_ephemeris_type": 0,
        "meta_classification_type": "U",
        "meta_norad_cat_id": 29740,
        "meta_element_set_no": 999,
        "meta_rev_at_epoch": 82902,
        "meta_bstar": 0.0010996439,
        "meta_mean_motion_dot": 3.97e-06,
        "meta_mean_motion_ddot": 0,
        "tle_line1": "1 29740U 99025AE  25344.02301601  .00000397  00000+0  10996-2 0  9993",
        "tle_line2": "2 29740  99.0446 196.3551 0975073 204.1383 151.0895 12.08325840829021"
      },
      "geometry": {
        "type": "Point",
        "coordinates": [
          162.5122704945382,
          74.23041560876287
        ]
      }
    },
    {
      "type": "Feature",
      "properties": {
        "norad_id": 29741,
        "name": "FENGYUN 1C DEB",
        "group": "fengyun-1c-debris",
        "lat": 1.7267249929544342,
        "lon": -140.6613260859266,
        "alt_km": 1276.2713445263626,
        "timestamp": "2025-12-10T16:57:11.907637+00:00",
        "meta_object_name": "FENGYUN 1C DEB",
        "meta_object_id": "1999-025AF",
        "meta_epoch": "2025-12-10T09:52:02.207424",
        "meta_mean_motion": 12.00921381,
        "meta_eccentricity": 0.102426,
        "meta_inclination": 99.1746,
        "meta_ra_of_asc_node": 219.4064,
        "meta_arg_of_pericenter": 68.4792,
        "meta_mean_anomaly": 107.8787,
        "meta_ephemeris_type": 0,
        "meta_classification_type": "U",
        "meta_norad_cat_id": 29741,
        "meta_element_set_no": 999,
        "meta_rev_at_epoch": 52155,
        "meta_bstar": 0.0064849,
        "meta_mean_motion_dot": 2.518e-05,
        "meta_mean_motion_ddot": 0,
        "tle_line1": "1 29741U 99025AF  25344.41113666  .00002518  00000+0  64849-2 0  9992",
        "tle_line2": "2 29741  99.1746 219.4064 1024260  68.4792 107.8787 12.00921381521551"
      },
      "geometry": {
        "type": "Point",
        "coordinates": [
          -140.6613260859266,
          1.7267249929544342
        ]
      }
    },
    {
      "type": "Feature",
      "properties": {
        "norad_id": 29748,
        "name": "FENGYUN 1C DEB",
        "group": "fengyun-1c-debris",
        "lat": 15.300244724752446,
        "lon": -86.57297103248874,
        "alt_km": 1047.0468379207632,
        "timestamp": "2025-12-10T16:57:11.907657+00:00",
        "meta_object_name": "FENGYUN 1C DEB",
        "meta_object_id": "1999-025AN",
        "meta_epoch": "2025-12-08T18:28:11.177184",
        "meta_mean_motion": 11.89764026,
        "meta_eccentricity": 0.08397796,
        "meta_inclination": 99.8026,
        "meta_ra_of_asc_node": 274.6986,
        "meta_arg_of_pericenter": 16.7533,
        "meta_mean_anomaly": 345.9549,
        "meta_ephemeris_type": 0,
        "meta_classification_type": "U",
        "meta_norad_cat_id": 29748,
        "meta_element_set_no": 999,
        "meta_rev_at_epoch": 78686,
        "meta_bstar": 0.18763308,
        "meta_mean_motion_dot": 0.00036035,
        "meta_mean_motion_ddot": 0,
        "tle_line1": "1 29748U 99025AN  25342.76957381  .00036035  00000+0  18763+0 0  9997",
        "tle_line2": "2 29748  99.8026 274.6986 0839779  16.7533 345.9549 11.89764026786864"
      },
      "geometry": {
        "type": "Point",
        "coordinates": [
          -86.57297103248874,
          15.300244724752446
        ]
      }
    },
    {
      "type": "Feature",
      "properties": {
        "norad_id": 29750,
        "name": "FENGYUN 1C DEB",
        "group": "fengyun-1c-debris",
        "lat": 32.94381718495132,
        "lon": 8.149699951934682,
        "alt_km": 856.7303714059926,
        "timestamp": "2025-12-10T16:57:11.907682+00:00",
        "meta_object_name": "FENGYUN 1C DEB",
        "meta_object_id": "1999-025AQ",
        "meta_epoch": "2025-12-10T08:21:18.217728",
        "meta_mean_motion": 14.09640573,
        "meta_eccentricity": 0.0035137,
        "meta_inclination": 98.7548,
        "meta_ra_of_asc_node": 13.5323,
        "meta_arg_of_pericenter": 308.3506,
        "meta_mean_anomaly": 67.6704,
        "meta_ephemeris_type": 0,
        "meta_classification_type": "U",
        "meta_norad_cat_id": 29750,
        "meta_element_set_no": 999,
        "meta_rev_at_epoch": 97040,
        "meta_bstar": 0.00032502,
        "meta_mean_motion_dot": 5.3e-06,
        "meta_mean_motion_ddot": 0,
        "tle_line1": "1 29750U 99025AQ  25344.34812752  .00000530  00000+0  32502-3 0  9990",
        "tle_line2": "2 29750  98.7548  13.5323 0035137 308.3506  67.6704 14.09640573970406"
      },
      "geometry": {
        "type": "Point",
        "coordinates": [
          8.149699951934682,
          32.94381718495132
        ]
      }
    },
    {
      "type": "Feature",
      "properties": {
        "norad_id": 29751,
        "name": "FENGYUN 1C DEB",
        "group": "fengyun-1c-debris",
        "lat": 65.04891393592196,
        "lon": -6.20824715823993,
        "alt_km": 793.3853579728711,
        "timestamp": "2025-12-10T16:57:11.907696+00:00",
        "meta_object_name": "FENGYUN 1C DEB",
        "meta_object_id": "1999-025AR",
        "meta_epoch": "2025-12-10T08:18:45.800352",
        "meta_mean_motion": 14.23626354,
        "meta_eccentricity": 0.0089824,
        "meta_inclination": 98.5417,
        "meta_ra_of_asc_node": 12.2878,
        "meta_arg_of_pericenter": 146.1334,
        "meta_mean_anomaly": 237.2902,
        "meta_ephemeris_type": 0,
        "meta_classification_type": "U",
        "meta_norad_cat_id": 29751,
        "meta_element_set_no": 999,
        "meta_rev_at_epoch": 98039,
        "meta_bstar": 0.00023831,
        "meta_mean_motion_dot": 5.24e-06,
        "meta_mean_motion_ddot": 0,
        "tle_line1": "1 29751U 99025AR  25344.34636343  .00000524  00000+0  23831-3 0  9999",
        "tle_line2": "2 29751  98.5417  12.2878 0089824 146.1334 237.2902 14.23626354980391"
      },
      "geometry": {
        "type": "Point",
        "coordinates": [
          -6.20824715823993,
          65.04891393592196
        ]
      }
    },
    {
      "type": "Feature",
      "properties": {
        "norad_id": 29754,
        "name": "FENGYUN 1C DEB",
        "group": "fengyun-1c-debris",
        "lat": -53.27407366008324,
        "lon": -104.66020181892661,
        "alt_km": 809.8733060193708,
        "timestamp": "2025-12-10T16:57:11.907707+00:00",
        "meta_object_name": "FENGYUN 1C DEB",
        "meta_object_id": "1999-025AU",
        "meta_epoch": "2025-12-10T12:45:50.170752",
        "meta_mean_motion": 14.19136065,
        "meta_eccentricity": 0.0035819,
        "meta_inclination": 98.8838,
        "meta_ra_of_asc_node": 87.2659,
        "meta_arg_of_pericenter": 245.6576,
        "meta_mean_anomaly": 177.2702,
        "meta_ephemeris_type": 0,
        "meta_classification_type": "U",
        "meta_norad_cat_id": 29754,
        "meta_element_set_no": 999,
        "meta_rev_at_epoch": 97323,
        "meta_bstar": 0.001572,
        "meta_mean_motion_dot": 3.266e-05,
        "meta_mean_motion_ddot": 0,
        "tle_line1": "1 29754U 99025AU  25344.53183068  .00003266  00000+0  15720-2 0  9997",
        "tle_line2": "2 29754  98.8838  87.2659 0035819 245.6576 177.2702 14.19136065973237"
      },
      "geometry": {
        "type": "Point",
        "coordinates": [
          -104.66020181892661,
          -53.27407366008324
        ]
      }
    },
    {
      "type": "Feature",
      "properties": {
        "norad_id": 29758,
        "name": "FENGYUN 1C DEB",
        "group": "fengyun-1c-debris",
        "lat": 34.46580400334032,
        "lon": 94.20474331771858,
        "alt_km": 750.8205179536253,
        "timestamp": "2025-12-10T16:57:11.907718+00:00",
        "meta_object_name": "FENGYUN 1C DEB",
        "meta_object_id": "1999-025AY",
        "meta_epoch": "2025-12-10T07:02:34.251936",
        "meta_mean_motion": 14.40923255,
        "meta_eccentricity": 0.0020826,
        "meta_inclination": 98.8548,
        "meta_ra_of_asc_node": 99.9199,
        "meta_arg_of_pericenter": 315.0914,
        "meta_mean_anomaly": 98.8923,
        "meta_ephemeris_type": 0,
        "meta_classification_type": "U",
        "meta_norad_cat_id": 29758,
        "meta_element_set_no": 999,
        "meta_rev_at_epoch": 97636,
        "meta_bstar": 0.0040418,
        "meta_mean_motion_dot": 0.00012981,
        "meta_mean_motion_ddot": 0,
        "tle_line1": "1 29758U 99025AY  25344.29345199  .00012981  00000+0  40418-2 0  9995",
        "tle_line2": "2 29758  98.8548  99.9199 0020826 315.0914  98.8923 14.40923255976367"
      },
      "geometry": {
        "type": "Point",
        "coordinates": [
          94.20474331771858,
          34.46580400334032
        ]
      }
    }
  ]
}